MEAN_MOTION;ECCENTRICITY;INCLINATION;RA_OF_ASC_NODE;ARG_OF_PERICENTER;MEAN_ANOMALY;BSTAR;MEAN_MOTION_DOT;MEAN_MOTION_DDOT;TYPE
11.15027965;0.0002136;51.9848;112.4044;343.1935;170.2361;-0.0013035;-1.05E-6;0;Globalstar
11.15027891;0.0002161;51.9848;109.9402;344.9842;187.4853;-0.0012843;-1.04E-6;0;Globalstar
11.15027876;0.0002187;51.985;107.69;346.7528;188.2669;-0.00055115;-8.2E-7;0;Globalstar
11.15027793;0.000222;51.9849;105.4422;348.2202;184.9774;-0.0007284;-8.8E-7;0;Globalstar
11.15027825;0.0002238;51.9849;103.1906;349.8797;188.1935;-0.00018269;-7.1E-7;0;Globalstar
11.15027824;0.0002267;51.9848;100.0188;352.2899;11.0626;0.00027734;-5.8E-7;0;Globalstar
11.15027804;0.0002274;51.9848;99.7986;352.4435;38.5493;0.00021106;-6.0E-7;0;Globalstar
11.15027808;0.0002288;51.9847;98.9134;353.1816;156.5856;0.00036368;-5.5E-7;0;Globalstar
11.15027819;0.0002318;51.985;95.6912;355.5326;68.5513;0.00056533;-4.9E-7;0;Globalstar
11.15027809;0.0002326;51.985;94.65;356.3625;101.1459;0.00053945;-5.0E-7;0;Globalstar
11.15027861;0.0002354;51.985;91.9539;358.3688;166.7362;0.00081608;-4.2E-7;0;Globalstar
11.15027876;0.0002374;51.9851;90.5901;359.3787;47.1248;0.00082744;-4.1E-7;0;Globalstar
11.15027892;0.000238;51.9851;89.7058;0.039;163.7196;0.00092435;-3.8E-7;0;Globalstar
11.15027931;0.0002407;51.9854;87.4579;1.8324;160.5677;0.0003716;-5.5E-7;0;Globalstar
11.15027988;0.0002437;51.9854;85.2095;3.4681;157.806;0.0010927;-3.3E-7;0;Globalstar
11.15028058;0.0002457;51.9856;82.9615;5.1188;154.8368;0.0010003;-3.6E-7;0;Globalstar
11.15028114;0.0002486;51.9858;80.7135;6.8271;151.756;0.00077967;-4.3E-7;0;Globalstar
11.15028162;0.0002533;51.9861;77.3175;9.3852;9.5651;0.00010623;-6.3E-7;0;Globalstar
11.15028188;0.0002543;51.9862;76.2174;10.2531;145.9798;-8.5569E-5;-6.8E-7;0;Globalstar
11.1502817;0.0002576;51.9865;72.8108;12.6803;22.6692;-0.00090177;-9.3E-7;0;Globalstar
11.15027933;0.0002596;51.9868;70.3574;14.6163;21.9026;-0.00077486;-8.9E-7;0;Globalstar
11.15027988;0.0002617;51.9869;68.0924;16.1742;48.6426;-0.0019332;-1.23E-6;0;Globalstar
11.15027973;0.0002619;51.987;66.8057;17.3462;153.1681;-0.001703;-1.17E-6;0;Globalstar
11.15027941;0.0002627;51.9871;65.8547;18.0432;27.2611;-0.0017056;-1.17E-6;0;Globalstar
11.15027883;0.000264;51.9872;64.9774;18.6945;131.6269;-0.0018196;-1.2E-6;0;Globalstar
11.15027852;0.0002652;51.9873;63.8217;19.556;6.155;-0.0016637;-1.15E-6;0;Globalstar
11.15027851;0.0002655;51.9873;63.5966;19.7618;42.2149;-0.0016316;-1.14E-6;0;Globalstar
11.15027839;0.0002657;51.9874;63.3755;19.9362;71.4675;-0.001644;-1.15E-6;0;Globalstar
11.15027767;0.0002689;51.9877;60.2793;22.2846;121.8961;-0.00096463;-9.5E-7;0;Globalstar
11.15027727;0.000273;51.988;56.8512;25.0724;36.2728;-4.9617E-5;-6.7E-7;0;Globalstar
11.15027715;0.0002746;51.9881;55.7661;26.0632;146.2941;0.00024574;-5.9E-7;0;Globalstar
11.15027738;0.0002766;51.9883;53.9684;27.5134;70.8362;0.00073545;-4.4E-7;0;Globalstar
11.15027786;0.0002787;51.9885;52.1591;28.9704;15.7751;0.0011379;-3.2E-7;0;Globalstar
11.15027869;0.0002817;51.9888;49.8922;30.6003;46.7246;0.0014756;-2.2E-7;0;Globalstar
11.15027955;0.0002842;51.989;47.8676;32.268;10.8782;0.0016599;-1.6E-7;0;Globalstar
11.15028039;0.0002854;51.9893;45.4249;33.8914;351.3335;0.0015088;-2.1E-7;0;Globalstar
11.15028046;0.0002863;51.9893;44.771;34.4684;62.342;0.0014236;-2.3E-7;0;Globalstar
11.15028089;0.0002879;51.9895;43.1455;35.7255;43.8966;0.0011129;-3.3E-7;0;Globalstar
11.15028105;0.0002889;51.9895;42.2932;36.388;104.5594;0.0010001;-3.6E-7;0;Globalstar
11.15028127;0.0002924;51.9898;38.4444;39.3217;40.0919;-6.1345E-6;-6.6E-7;0;Globalstar
11.15028137;0.0002933;51.9899;37.587;39.9483;109.5689;-0.00010831;-6.9E-7;0;Globalstar
11.15028131;0.0002956;51.99;35.539;41.5924;114.8836;-0.00044269;-7.9E-7;0;Globalstar
11.15028108;0.0002969;51.9901;33.948;42.782;35.907;-0.00077792;-8.9E-7;0;Globalstar
11.15028052;0.0002993;51.9902;31.6993;44.5054;34.51;-0.0011031;-9.9E-7;0;Globalstar
11.15028002;0.000301;51.9903;29.4527;46.2068;29.7476;-0.0012867;-1.04E-6;0;Globalstar
11.15027973;0.0003035;51.9904;27.1948;47.8622;44.8996;-0.001211;-1.02E-6;0;Globalstar
11.15027941;0.0003045;51.9904;26.3479;48.4824;95.8561;-0.0012156;-1.02E-6;0;Globalstar
11.15027901;0.0003055;51.9905;24.9558;49.5429;26.8177;-0.0012335;-1.03E-6;0;Globalstar
11.15027905;0.0003065;51.9905;24.0999;50.2231;93.6101;-0.0010568;-9.7E-7;0;Globalstar
11.15027874;0.0003074;51.9905;22.9281;51.1153;356.5073;-0.0010183;-9.6E-7;0;Globalstar
11.15027848;0.0003086;51.9905;21.8515;51.8051;92.2067;-0.00092499;-9.3E-7;0;Globalstar
11.15027825;0.0003093;51.9905;20.2519;52.9875;28.3952;-0.0007505;-8.8E-7;0;Globalstar
11.15027825;0.0003117;51.9905;18.0031;54.8521;27.484;-0.00027259;-7.4E-7;0;Globalstar
11.15027802;0.0003123;51.9905;17.1538;55.3903;82.8387;-0.00021058;-7.2E-7;0;Globalstar
11.15027797;0.0003128;51.9905;15.7551;56.4789;25.3273;4.8372E-5;-6.4E-7;0;Globalstar
11.15027813;0.0003148;51.9904;13.5056;58.1187;25.7679;0.00051773;-5.0E-7;0;Globalstar
11.15028011;0.0003153;51.9903;11.2582;59.8055;21.8256;0.00057937;-4.9E-7;0;Globalstar
11.15027937;0.000318;51.9903;8.797;61.7553;35.0633;0.001532;-2.0E-7;0;Globalstar
11.1502795;0.000318;51.9902;7.8036;62.579;343.9532;0.00157;-1.9E-7;0;Globalstar
11.1502801;0.0003183;51.9901;6.5497;63.6912;31.2468;0.0018127;-1.2E-7;0;Globalstar
11.15028034;0.0003187;51.99;6.1018;64.0035;99.6734;0.0018844;-1.0E-7;0;Globalstar
11.15028084;0.0003197;51.99;4.5134;65.2019;15.9919;0.0018472;-1.1E-7;0;Globalstar
11.1502818;0.0003204;51.9899;2.8882;66.4227;357.0498;0.0019778;-7.0E-8;0;Globalstar
11.15028225;0.0003211;51.9899;2.0539;67.1012;25.6746;0.0019429;-8.0E-8;0;Globalstar
11.15028284;0.0003223;51.9898;0.4589;68.3772;313.4005;0.0017353;-1.4E-7;0;Globalstar
11.15028313;0.0003224;51.9898;359.8181;68.867;1.5009;0.0016424;-1.7E-7;0;Globalstar
11.15028386;0.0003233;51.9897;357.5595;70.6523;17.3997;0.0011914;-3.0E-7;0;Globalstar
11.15028441;0.0003242;51.9896;355.3119;72.4349;14.0854;0.00065937;-4.6E-7;0;Globalstar
11.15028425;0.000325;51.9894;352.8471;74.2565;33.2615;-0.00016421;-7.1E-7;0;Globalstar
11.15028412;0.0003265;51.9893;349.9874;76.3863;27.5509;-0.00076922;-8.9E-7;0;Globalstar
11.15028371;0.0003274;51.9891;348.1222;77.7041;71.1439;-0.0010176;-9.6E-7;0;Globalstar
11.15028317;0.0003282;51.989;346.1034;79.2729;24.9489;-0.0011928;-1.01E-6;0;Globalstar
11.15028285;0.0003284;51.9889;345.4944;79.6282;17.1308;-0.0013;-1.05E-6;0;Globalstar
11.1502823;0.0003289;51.9888;343.8567;80.7855;20.1511;-0.0012287;-1.02E-6;0;Globalstar
11.15028218;0.0003293;51.9888;343.4233;81.097;63.0953;-0.0011999;-1.02E-6;0;Globalstar
11.15028263;0.000329;51.9888;341.6072;82.4685;19.5868;-0.00022902;-7.3E-7;0;Globalstar
11.15028248;0.0003293;51.9886;339.3592;84.1513;16.7745;-0.00022438;-7.3E-7;0;Globalstar
11.15028247;0.0003295;51.9886;338.9255;84.3934;60.3133;-0.00019539;-7.2E-7;0;Globalstar
11.15028229;0.0003298;51.9885;337.122;85.7555;355.1123;-0.00014257;-7.0E-7;0;Globalstar
11.15028246;0.0003301;51.9884;334.8744;87.4482;351.6409;6.5863E-5;-6.4E-7;0;Globalstar
11.15028125;0.0003321;51.9883;332.6153;89.2445;8.2642;0.00085487;-4.0E-7;0;Globalstar
11.15028197;0.0003326;51.9882;330.1605;91.2158;9.3545;0.0012784;-2.8E-7;0;Globalstar
11.15028279;0.0003323;51.9881;328.1179;92.5715;5.1346;0.0015577;-1.9E-7;0;Globalstar
11.15028288;0.0003323;51.9881;327.9127;92.6393;6.4775;0.0016062;-1.8E-7;0;Globalstar
11.15028395;0.0003324;51.988;325.6648;94.3275;3.5094;0.0017852;-1.3E-7;0;Globalstar
11.15028453;0.0003322;51.988;324.2825;95.2854;276.7125;0.001794;-1.2E-7;0;Globalstar
11.15028477;0.0003323;51.9879;323.4163;96.106;1.2923;0.0017279;-1.4E-7;0;Globalstar
11.15028564;0.0003324;51.9878;320.9269;97.8163;63.2797;0.0015914;-1.8E-7;0;Globalstar
11.15028605;0.0003321;51.9877;318.9197;99.3536;356.3893;0.0012901;-2.7E-7;0;Globalstar
11.15028644;0.0003318;51.9877;316.6725;101.1681;352.017;0.00090072;-3.9E-7;0;Globalstar
11.15028637;0.0003315;51.9877;314.4246;102.8095;348.8957;0.00037569;-5.5E-7;0;Globalstar
11.15028465;0.0003299;51.9877;311.9605;104.7509;6.7788;-0.00014711;-7.0E-7;0;Globalstar
11.15028456;0.0003294;51.9877;309.7119;106.7411;4.6767;-0.00039713;-7.8E-7;0;Globalstar
11.15028457;0.0003294;51.9877;309.4862;106.8986;41.9935;-0.00040841;-7.8E-7;0;Globalstar
11.15028456;0.0003288;51.9877;307.4393;108.3537;45.3046;-0.0004672;-8.0E-7;0;Globalstar
11.15028443;0.0003278;51.9877;305.216;110.2344;358.9619;-0.00057776;-8.3E-7;0;Globalstar
11.15028476;0.000328;51.9877;302.9682;111.9396;355.7212;-0.0014526;-1.09E-6;0;Globalstar
11.15028425;0.0003272;51.9877;300.7194;113.681;354.3626;-0.0014441;-1.09E-6;0;Globalstar
11.15028378;0.0003265;51.9877;299.3428;114.7537;257.6115;-0.0014461;-1.09E-6;0;Globalstar
11.1502836;0.0003252;51.9876;295.9974;117.1772;26.9516;-0.00063023;-8.5E-7;0;Globalstar
11.15028354;0.0003242;51.9875;293.7486;118.9087;25.6961;-1.844E-5;-6.6E-7;0;Globalstar
11.15028327;0.0003233;51.9875;291.4998;120.4836;24.4911;0.0004799;-5.2E-7;0;Globalstar
11.15028338;0.0003229;51.9875;289.9;121.6578;320.8065;0.00092429;-3.8E-7;0;Globalstar
11.15028342;0.0003224;51.9874;289.2644;122.1673;359.5126;0.0010923;-3.3E-7;0;Globalstar
11.1502841;0.0003211;51.9874;286.9913;124.0525;40.71;0.0016733;-1.6E-7;0;Globalstar
11.15028475;0.0003196;51.9874;284.739;125.7252;45.5422;0.0020195;-6.0E-8;0;Globalstar
11.15028533;0.0003173;51.9873;282.5213;127.5741;349.634;0.00054017;-5.0E-7;0;Globalstar
11.15028536;0.0003163;51.9872;280.2476;129.2779;32.2896;0.00054441;-5.0E-7;0;Globalstar
11.15028644;0.0003173;51.9873;280.047;129.3486;25.0595;0.0018705;-1.0E-7;0;Globalstar
11.15028715;0.0003156;51.9873;277.7983;131.041;23.5693;0.0013896;-2.4E-7;0;Globalstar
11.15028755;0.0003146;51.9873;276.1983;132.2935;320.1891;0.00096269;-3.7E-7;0;Globalstar
11.15028836;0.0003132;51.9872;273.9521;133.993;314.4668;0.00047158;-5.2E-7;0;Globalstar
11.1502885;0.0003112;51.9871;271.4879;135.9714;332.4951;-0.00027435;-7.4E-7;0;Globalstar
11.15028852;0.0003101;51.987;269.8923;137.2774;261.4217;-0.0006535;-8.5E-7;0;Globalstar
